start=new Date('2023-06-11T00:00:00.000Z').valueOf();
sats=[{"ECCENTRICITY":"0.00014790","PERIOD":"95.919","OBJECT_TYPE":"PAYLOAD","MEAN_ELEMENT_THEORY":"SGP4","LAUNCH_DATE":"2022-07-22","SITE":"AFWTR","FILE":"3929969","EPHEMERIS_TYPE":"0","ARG_OF_PERICENTER":"108.7900","MEAN_ANOMALY":"251.3484","REV_AT_EPOCH":"4938","TIME_SYSTEM":"UTC","GP_ID":"233655538","CENTER_NAME":"EARTH","DECAY_DATE":null,"REF_FRAME":"TEME","NORAD_CAT_ID":"53211","BSTAR":"0.00002927700000","MEAN_MOTION_DDOT":"0.0000000000000","MEAN_MOTION":"15.01260033","PERIAPSIS":"561.985","OBJECT_NAME":"STARLINK-4419","RCS_SIZE":"LARGE","OBJECT_ID":"2022-084Y","EPOCH":"2023-06-10T21:28:08.549760","TLE_LINE2":"2 53211  97.6547 223.0614 0001479 108.7900 251.3484 15.01260033 49388","INCLINATION":"97.6547","CLASSIFICATION_TYPE":"U","SEMIMAJOR_AXIS":"6941.147","ELEMENT_SET_NO":"999","APOAPSIS":"564.038","COUNTRY_CODE":"US","MEAN_MOTION_DOT":"0.00000317","RA_OF_ASC_NODE":"223.0614","TLE_LINE1":"1 53211U 22084Y   23161.89454340  .00000317  00000-0  29277-4 0  9990"},{"RCS_SIZE":"MEDIUM","PERIAPSIS":"561.752","MEAN_MOTION":"15.01259581","OBJECT_NAME":"STARLINK-4416","MEAN_MOTION_DDOT":"0.0000000000000","BSTAR":"0.00003178700000","CLASSIFICATION_TYPE":"U","EPOCH":"2023-06-10T18:23:49.931232","TLE_LINE2":"2 53212  97.6533 222.9374 0001817 103.2339 256.9088 15.01259581 48844","INCLINATION":"97.6533","OBJECT_ID":"2022-084Z","MEAN_MOTION_DOT":"0.00000349","COUNTRY_CODE":"US","APOAPSIS":"564.274","ELEMENT_SET_NO":"999","SEMIMAJOR_AXIS":"6941.148","RA_OF_ASC_NODE":"222.9374","TLE_LINE1":"1 53212U 22084Z   23161.76655013  .00000349  00000-0  31787-4 0  9991","SITE":"AFWTR","FILE":"3929969","OBJECT_TYPE":"PAYLOAD","MEAN_ELEMENT_THEORY":"SGP4","LAUNCH_DATE":"2022-07-22","ECCENTRICITY":"0.00018170","PERIOD":"95.919","MEAN_ANOMALY":"256.9088","ARG_OF_PERICENTER":"103.2339","EPHEMERIS_TYPE":"0","DECAY_DATE":null,"GP_ID":"233653792","CENTER_NAME":"EARTH","REV_AT_EPOCH":"4884","TIME_SYSTEM":"UTC","REF_FRAME":"TEME","NORAD_CAT_ID":"53212"},{"EPOCH":"2023-06-10T21:22:27.115968","TLE_LINE2":"2 53213  97.6551 223.0512 0000594 145.7254 214.4008 15.01262024 49386","INCLINATION":"97.6551","CLASSIFICATION_TYPE":"U","OBJECT_ID":"2022-084AA","MEAN_MOTION":"15.01262024","PERIAPSIS":"562.593","OBJECT_NAME":"STARLINK-4414","RCS_SIZE":"LARGE","BSTAR":"0.00004059900000","MEAN_MOTION_DDOT":"0.0000000000000","RA_OF_ASC_NODE":"223.0512","TLE_LINE1":"1 53213U 22084AA  23161.89059162  .00000463  00000-0  40599-4 0  9997","APOAPSIS":"563.418","MEAN_MOTION_DOT":"0.00000463","COUNTRY_CODE":"US","SEMIMAJOR_AXIS":"6941.141","ELEMENT_SET_NO":"999","ARG_OF_PERICENTER":"145.7254","MEAN_ANOMALY":"214.4008","EPHEMERIS_TYPE":"0","OBJECT_TYPE":"PAYLOAD","MEAN_ELEMENT_THEORY":"SGP4","LAUNCH_DATE":"2022-07-22","SITE":"AFWTR","FILE":"3929969","ECCENTRICITY":"0.00005940","PERIOD":"95.919","REF_FRAME":"TEME","NORAD_CAT_ID":"53213","CENTER_NAME":"EARTH","GP_ID":"233654042","DECAY_DATE":null,"REV_AT_EPOCH":"4938","TIME_SYSTEM":"UTC"},{"RCS_SIZE":"LARGE","MEAN_MOTION":"15.01262355","PERIAPSIS":"561.831","OBJECT_NAME":"STARLINK-4353","MEAN_MOTION_DDOT":"0.0000000000000","BSTAR":"0.00005555400000","CLASSIFICATION_TYPE":"U","EPOCH":"2023-06-10T21:33:07.193952","TLE_LINE2":"2 53214  97.6540 223.0626 0001691 107.9448 252.1961 15.01262355 48861","INCLINATION":"97.6540","OBJECT_ID":"2022-084AB","MEAN_MOTION_DOT":"0.00000655","COUNTRY_CODE":"US","APOAPSIS":"564.178","ELEMENT_SET_NO":"999","SEMIMAJOR_AXIS":"6941.140","RA_OF_ASC_NODE":"223.0626","TLE_LINE1":"1 53214U 22084AB  23161.89799993  .00000655  00000-0  55554-4 0  9991","SITE":"AFWTR","FILE":"3929969","OBJECT_TYPE":"PAYLOAD","MEAN_ELEMENT_THEORY":"SGP4","LAUNCH_DATE":"2022-07-22","ECCENTRICITY":"0.00016910","PERIOD":"95.919","MEAN_ANOMALY":"252.1961","ARG_OF_PERICENTER":"107.9448","EPHEMERIS_TYPE":"0","DECAY_DATE":null,"GP_ID":"233655293","CENTER_NAME":"EARTH","REV_AT_EPOCH":"4886","TIME_SYSTEM":"UTC","REF_FRAME":"TEME","NORAD_CAT_ID":"53214"},{"NORAD_CAT_ID":"53215","REF_FRAME":"TEME","TIME_SYSTEM":"UTC","REV_AT_EPOCH":"4938","CENTER_NAME":"EARTH","GP_ID":"233655039","DECAY_DATE":null,"EPHEMERIS_TYPE":"0","ARG_OF_PERICENTER":"130.7615","MEAN_ANOMALY":"229.3639","PERIOD":"95.918","ECCENTRICITY":"0.00003480","MEAN_ELEMENT_THEORY":"SGP4","LAUNCH_DATE":"2022-07-22","OBJECT_TYPE":"PAYLOAD","FILE":"3929969","SITE":"AFWTR","TLE_LINE1":"1 53215U 22084AC  23161.88873391 -.00006148  00000-0 -47409-3 0  9990","RA_OF_ASC_NODE":"223.0489","SEMIMAJOR_AXIS":"6941.054","ELEMENT_SET_NO":"999","APOAPSIS":"563.161","COUNTRY_CODE":"US","MEAN_MOTION_DOT":"-0.00006148","OBJECT_ID":"2022-084AC","INCLINATION":"97.6554","TLE_LINE2":"2 53215  97.6554 223.0489 0000348 130.7615 229.3639 15.01290088 49382","EPOCH":"2023-06-10T21:19:46.609824","CLASSIFICATION_TYPE":"U","BSTAR":"-0.00047409000000","MEAN_MOTION_DDOT":"0.0000000000000","OBJECT_NAME":"STARLINK-4335","PERIAPSIS":"562.678","MEAN_MOTION":"15.01290088","RCS_SIZE":"LARGE"},{"BSTAR":"0.00003658800000","MEAN_MOTION_DDOT":"0.0000000000000","PERIAPSIS":"562.022","MEAN_MOTION":"15.01260117","OBJECT_NAME":"STARLINK-4376","RCS_SIZE":"LARGE","OBJECT_ID":"2022-084AD","EPOCH":"2023-06-10T21:27:47.390400","INCLINATION":"97.6551","TLE_LINE2":"2 53216  97.6551 223.0561 0001426 110.1031 250.0347 15.01260117 48862","CLASSIFICATION_TYPE":"U","SEMIMAJOR_AXIS":"6941.146","ELEMENT_SET_NO":"999","APOAPSIS":"564.001","COUNTRY_CODE":"US","MEAN_MOTION_DOT":"0.00000411","RA_OF_ASC_NODE":"223.0561","TLE_LINE1":"1 53216U 22084AD  23161.89429850  .00000411  00000-0  36588-4 0  9991","ECCENTRICITY":"0.00014260","PERIOD":"95.919","OBJECT_TYPE":"PAYLOAD","MEAN_ELEMENT_THEORY":"SGP4","LAUNCH_DATE":"2022-07-22","SITE":"AFWTR","FILE":"3929969","EPHEMERIS_TYPE":"0","ARG_OF_PERICENTER":"110.1031","MEAN_ANOMALY":"250.0347","REV_AT_EPOCH":"4886","TIME_SYSTEM":"UTC","CENTER_NAME":"EARTH","GP_ID":"233654292","DECAY_DATE":null,"REF_FRAME":"TEME","NORAD_CAT_ID":"53216"},{"REF_FRAME":"TEME","NORAD_CAT_ID":"53217","REV_AT_EPOCH":"4882","TIME_SYSTEM":"UTC","DECAY_DATE":null,"GP_ID":"233654542","CENTER_NAME":"EARTH","EPHEMERIS_TYPE":"0","MEAN_ANOMALY":"263.7078","ARG_OF_PERICENTER":"96.4244","ECCENTRICITY":"0.00008550","PERIOD":"95.919","SITE":"AFWTR","FILE":"3929969","OBJECT_TYPE":"PAYLOAD","MEAN_ELEMENT_THEORY":"SGP4","LAUNCH_DATE":"2022-07-22","RA_OF_ASC_NODE":"222.7921","TLE_LINE1":"1 53217U 22084AE  23161.61102319  .00000954  00000-0  78858-4 0  9998","ELEMENT_SET_NO":"999","SEMIMAJOR_AXIS":"6941.137","MEAN_MOTION_DOT":"0.00000954","COUNTRY_CODE":"US","APOAPSIS":"563.596","OBJECT_ID":"2022-084AE","CLASSIFICATION_TYPE":"U","EPOCH":"2023-06-10T14:39:52.403616","TLE_LINE2":"2 53217  97.6547 222.7921 0000855  96.4244 263.7078 15.01263056 48824","INCLINATION":"97.6547","MEAN_MOTION_DDOT":"0.0000000000000","BSTAR":"0.00007885800000","RCS_SIZE":"LARGE","PERIAPSIS":"562.409","MEAN_MOTION":"15.01263056","OBJECT_NAME":"STARLINK-4379"},{"CENTER_NAME":"EARTH","GP_ID":"233654794","DECAY_DATE":null,"TIME_SYSTEM":"UTC","REV_AT_EPOCH":"4934","NORAD_CAT_ID":"53218","REF_FRAME":"TEME","MEAN_ELEMENT_THEORY":"SGP4","LAUNCH_DATE":"2022-07-22","OBJECT_TYPE":"PAYLOAD","FILE":"3929969","SITE":"AFWTR","PERIOD":"95.919","ECCENTRICITY":"0.00013450","ARG_OF_PERICENTER":"104.5546","MEAN_ANOMALY":"255.5827","EPHEMERIS_TYPE":"0","APOAPSIS":"563.946","COUNTRY_CODE":"US","MEAN_MOTION_DOT":"0.00000089","SEMIMAJOR_AXIS":"6941.148","ELEMENT_SET_NO":"999","TLE_LINE1":"1 53218U 22084AF  23161.62583811  .00000089  00000-0  11490-4 0  9998","RA_OF_ASC_NODE":"222.7911","OBJECT_NAME":"STARLINK-4384","MEAN_MOTION":"15.01259759","PERIAPSIS":"562.079","RCS_SIZE":"LARGE","BSTAR":"0.00001149000000","MEAN_MOTION_DDOT":"0.0000000000000","TLE_LINE2":"2 53218  97.6554 222.7911 0001345 104.5546 255.5827 15.01259759 49347","INCLINATION":"97.6554","EPOCH":"2023-06-10T15:01:12.412704","CLASSIFICATION_TYPE":"U","OBJECT_ID":"2022-084AF"},{"OBJECT_ID":"2022-084AG","CLASSIFICATION_TYPE":"U","TLE_LINE2":"2 53219  97.6545 223.0409 0003167 200.9865 159.1230 15.01274399 48863","INCLINATION":"97.6545","EPOCH":"2023-06-10T21:09:07.105536","MEAN_MOTION_DDOT":"0.0000000000000","BSTAR":"-0.00010108000000","RCS_SIZE":"LARGE","OBJECT_NAME":"STARLINK-4373","MEAN_MOTION":"15.01274399","PERIAPSIS":"560.769","TLE_LINE1":"1 53219U 22084AG  23161.88133224 -.00001358  00000-0 -10108-3 0  9992","RA_OF_ASC_NODE":"223.0409","ELEMENT_SET_NO":"999","SEMIMAJOR_AXIS":"6941.102","COUNTRY_CODE":"US","MEAN_MOTION_DOT":"-0.00001358","APOAPSIS":"565.166","EPHEMERIS_TYPE":"0","MEAN_ANOMALY":"159.1230","ARG_OF_PERICENTER":"200.9865","PERIOD":"95.919","ECCENTRICITY":"0.00031670","FILE":"3929969","SITE":"AFWTR","LAUNCH_DATE":"2022-07-22","MEAN_ELEMENT_THEORY":"SGP4","OBJECT_TYPE":"PAYLOAD","NORAD_CAT_ID":"53219","REF_FRAME":"TEME","TIME_SYSTEM":"UTC","REV_AT_EPOCH":"4886","DECAY_DATE":null,"CENTER_NAME":"EARTH","GP_ID":"233655539"},{"SEMIMAJOR_AXIS":"6941.149","ELEMENT_SET_NO":"999","APOAPSIS":"563.383","MEAN_MOTION_DOT":"0.00000602","COUNTRY_CODE":"US","TLE_LINE1":"1 53220U 22084AH  23161.88688859  .00000602  00000-0  51490-4 0  9992","RA_OF_ASC_NODE":"223.0466","BSTAR":"0.00005149000000","MEAN_MOTION_DDOT":"0.0000000000000","OBJECT_NAME":"STARLINK-4363","MEAN_MOTION":"15.01259455","PERIAPSIS":"562.644","RCS_SIZE":"LARGE","OBJECT_ID":"2022-084AH","TLE_LINE2":"2 53220  97.6554 223.0466 0000533 179.1617 180.9609 15.01259455 49380","INCLINATION":"97.6554","EPOCH":"2023-06-10T21:17:07.174176","CLASSIFICATION_TYPE":"U","TIME_SYSTEM":"UTC","REV_AT_EPOCH":"4938","GP_ID":"233653793","CENTER_NAME":"EARTH","DECAY_DATE":null,"NORAD_CAT_ID":"53220","REF_FRAME":"TEME","PERIOD":"95.919","ECCENTRICITY":"0.00005330","LAUNCH_DATE":"2022-07-22","MEAN_ELEMENT_THEORY":"SGP4","OBJECT_TYPE":"PAYLOAD","FILE":"3929969","SITE":"AFWTR","EPHEMERIS_TYPE":"0","ARG_OF_PERICENTER":"179.1617","MEAN_ANOMALY":"180.9609"}];
